{
  "type": "FeatureCollection",
  "features": [
    {
      "type": "Feature",
      "properties": {
        "norad_id": 67053,
        "name": "STARLINK-35739",
        "group": "last-30-days",
        "lat": 34.27372204424257,
        "lon": 145.21798547750944,
        "alt_km": 366.75044145804713,
        "timestamp": "2025-12-26T11:25:43.988257+00:00",
        "meta_object_name": "STARLINK-35739",
        "meta_object_id": "2025-294Z",
        "meta_epoch": "2025-12-26T04:00:01.998720",
        "meta_mean_motion": 15.66979869,
        "meta_eccentricity": 0.0001442,
        "meta_inclination": 42.9999,
        "meta_ra_of_asc_node": 100.0738,
        "meta_arg_of_pericenter": 281.2539,
        "meta_mean_anomaly": 187.0886,
        "meta_ephemeris_type": 0,
        "meta_classification_type": "U",
        "meta_norad_cat_id": 67053,
        "meta_element_set_no": 999,
        "meta_rev_at_epoch": 210,
        "meta_bstar": -0.020076,
        "meta_mean_motion_dot": -0.01941492,
        "meta_mean_motion_ddot": 0,
        "tle_line1": "1 67053U 25294Z   25360.16668980 -.01941492  00000+0 -20076-1 0  9990",
        "tle_line2": "2 67053  42.9999 100.0738 0001442 281.2539 187.0886 15.66979869  2102"
      },
      "geometry": {
        "type": "Point",
        "coordinates": [
          145.21798547750944,
          34.27372204424257
        ]
      }
    },
    {
      "type": "Feature",
      "properties": {
        "norad_id": 67054,
        "name": "STARLINK-35754",
        "group": "last-30-days",
        "lat": 35.262473753892834,
        "lon": 147.57169004762088,
        "alt_km": 366.68173116048183,
        "timestamp": "2025-12-26T11:25:43.988267+00:00",
        "meta_object_name": "STARLINK-35754",
        "meta_object_id": "2025-294AA",
        "meta_epoch": "2025-12-26T04:00:01.998720",
        "meta_mean_motion": 15.6696564,
        "meta_eccentricity": 0.0001451,
        "meta_inclination": 42.9996,
        "meta_ra_of_asc_node": 100.0684,
        "meta_arg_of_pericenter": 281.3739,
        "meta_mean_anomaly": 189.1604,
        "meta_ephemeris_type": 0,
        "meta_classification_type": "U",
        "meta_norad_cat_id": 67054,
        "meta_element_set_no": 999,
        "meta_rev_at_epoch": 226,
        "meta_bstar": -0.020163,
        "meta_mean_motion_dot": -0.0194788,
        "meta_mean_motion_ddot": 0,
        "tle_line1": "1 67054U 25294AA  25360.16668980 -.01947880  00000+0 -20163-1 0  9995",
        "tle_line2": "2 67054  42.9996 100.0684 0001451 281.3739 189.1604 15.66965640  2263"
      },
      "geometry": {
        "type": "Point",
        "coordinates": [
          147.57169004762088,
          35.262473753892834
        ]
      }
    },
    {
      "type": "Feature",
      "properties": {
        "norad_id": 67055,
        "name": "STARLINK-35790",
        "group": "last-30-days",
        "lat": 36.18584898866348,
        "lon": 149.93171801453258,
        "alt_km": 366.6382715724776,
        "timestamp": "2025-12-26T11:25:43.988277+00:00",
        "meta_object_name": "STARLINK-35790",
        "meta_object_id": "2025-294AB",
        "meta_epoch": "2025-12-26T04:00:01.998720",
        "meta_mean_motion": 15.66946041,
        "meta_eccentricity": 0.0001452,
        "meta_inclination": 42.9995,
        "meta_ra_of_asc_node": 100.0621,
        "meta_arg_of_pericenter": 279.6511,
        "meta_mean_anomaly": 193.0329,
        "meta_ephemeris_type": 0,
        "meta_classification_type": "U",
        "meta_norad_cat_id": 67055,
        "meta_element_set_no": 999,
        "meta_rev_at_epoch": 246,
        "meta_bstar": -0.020128,
        "meta_mean_motion_dot": -0.01943501,
        "meta_mean_motion_ddot": 0,
        "tle_line1": "1 67055U 25294AB  25360.16668980 -.01943501  00000+0 -20128-1 0  9993",
        "tle_line2": "2 67055  42.9995 100.0621 0001452 279.6511 193.0329 15.66946041  2467"
      },
      "geometry": {
        "type": "Point",
        "coordinates": [
          149.93171801453258,
          36.18584898866348
        ]
      }
    },
    {
      "type": "Feature",
      "properties": {
        "norad_id": 67056,
        "name": "STARLINK-36143",
        "group": "last-30-days",
        "lat": 38.51180237714403,
        "lon": 156.84211685235127,
        "alt_km": 366.34338742912496,
        "timestamp": "2025-12-26T11:25:43.988286+00:00",
        "meta_object_name": "STARLINK-36143",
        "meta_object_id": "2025-294AC",
        "meta_epoch": "2025-12-26T04:00:01.998720",
        "meta_mean_motion": 15.66927441,
        "meta_eccentricity": 0.0001382,
        "meta_inclination": 42.9994,
        "meta_ra_of_asc_node": 100.0468,
        "meta_arg_of_pericenter": 280.7691,
        "meta_mean_anomaly": 197.904,
        "meta_ephemeris_type": 0,
        "meta_classification_type": "U",
        "meta_norad_cat_id": 67056,
        "meta_element_set_no": 999,
        "meta_rev_at_epoch": 246,
        "meta_bstar": -0.020133,
        "meta_mean_motion_dot": -0.01942596,
        "meta_mean_motion_ddot": 0,
        "tle_line1": "1 67056U 25294AC  25360.16668980 -.01942596  00000+0 -20133-1 0  9993",
        "tle_line2": "2 67056  42.9994 100.0468 0001382 280.7691 197.9040 15.66927441  2466"
      },
      "geometry": {
        "type": "Point",
        "coordinates": [
          156.84211685235127,
          38.51180237714403
        ]
      }
    },
    {
      "type": "Feature",
      "properties": {
        "norad_id": 67057,
        "name": "STARLINK-36141",
        "group": "last-30-days",
        "lat": 37.76707286722051,
        "lon": 154.44612139404774,
        "alt_km": 366.41689161058275,
        "timestamp": "2025-12-26T11:25:43.988296+00:00",
        "meta_object_name": "STARLINK-36141",
        "meta_object_id": "2025-294AD",
        "meta_epoch": "2025-12-26T04:00:01.998720",
        "meta_mean_motion": 15.66933887,
        "meta_eccentricity": 0.0001399,
        "meta_inclination": 42.9994,
        "meta_ra_of_asc_node": 100.0523,
        "meta_arg_of_pericenter": 280.8915,
        "meta_mean_anomaly": 195.7446,
        "meta_ephemeris_type": 0,
        "meta_classification_type": "U",
        "meta_norad_cat_id": 67057,
        "meta_element_set_no": 999,
        "meta_rev_at_epoch": 238,
        "meta_bstar": -0.020085,
        "meta_mean_motion_dot": -0.01938928,
        "meta_mean_motion_ddot": 0,
        "tle_line1": "1 67057U 25294AD  25360.16668980 -.01938928  00000+0 -20085-1 0  9994",
        "tle_line2": "2 67057  42.9994 100.0523 0001399 280.8915 195.7446 15.66933887  2385"
      },
      "geometry": {
        "type": "Point",
        "coordinates": [
          154.44612139404774,
          37.76707286722051
        ]
      }
    },
    {
      "type": "Feature",
      "properties": {
        "norad_id": 67058,
        "name": "STARLINK-35767",
        "group": "last-30-days",
        "lat": 37.00702783748762,
        "lon": 152.19070037246655,
        "alt_km": 366.47181305308095,
        "timestamp": "2025-12-26T11:25:43.988305+00:00",
        "meta_object_name": "STARLINK-35767",
        "meta_object_id": "2025-294AE",
        "meta_epoch": "2025-12-26T04:00:01.998720",
        "meta_mean_motion": 15.66937901,
        "meta_eccentricity": 0.0001311,
        "meta_inclination": 42.9998,
        "meta_ra_of_asc_node": 100.0574,
        "meta_arg_of_pericenter": 280.1766,
        "meta_mean_anomaly": 194.509,
        "meta_ephemeris_type": 0,
        "meta_classification_type": "U",
        "meta_norad_cat_id": 67058,
        "meta_element_set_no": 999,
        "meta_rev_at_epoch": 226,
        "meta_bstar": -0.020117,
        "meta_mean_motion_dot": -0.01941903,
        "meta_mean_motion_ddot": 0,
        "tle_line1": "1 67058U 25294AE  25360.16668980 -.01941903  00000+0 -20117-1 0  9998",
        "tle_line2": "2 67058  42.9998 100.0574 0001311 280.1766 194.5090 15.66937901  2267"
      },
      "geometry": {
        "type": "Point",
        "coordinates": [
          152.19070037246655,
          37.00702783748762
        ]
      }
    },
    {
      "type": "Feature",
      "properties": {
        "norad_id": 67059,
        "name": "HULIANWANG DIGUI-119",
        "group": "last-30-days",
        "lat": 24.517820764115676,
        "lon": 111.78714115723812,
        "alt_km": 815.190830392502,
        "timestamp": "2025-12-26T11:25:43.988314+00:00",
        "meta_object_name": "HULIANWANG DIGUI-119",
        "meta_object_id": "2025-295A",
        "meta_epoch": "2025-12-26T04:00:22.173120",
        "meta_mean_motion": 14.24617191,
        "meta_eccentricity": 0.0014013,
        "meta_inclination": 50.005,
        "meta_ra_of_asc_node": 315.6041,
        "meta_arg_of_pericenter": 293.7562,
        "meta_mean_anomaly": 66.1882,
        "meta_ephemeris_type": 0,
        "meta_classification_type": "U",
        "meta_norad_cat_id": 67059,
        "meta_element_set_no": 999,
        "meta_rev_at_epoch": 203,
        "meta_bstar": 7.2308e-05,
        "meta_mean_motion_dot": 1e-07,
        "meta_mean_motion_ddot": 0,
        "tle_line1": "1 67059U 25295A   25360.16692330  .00000010  00000+0  72308-4 0  9990",
        "tle_line2": "2 67059  50.0050 315.6041 0014013 293.7562  66.1882 14.24617191  2034"
      },
      "geometry": {
        "type": "Point",
        "coordinates": [
          111.78714115723812,
          24.517820764115676
        ]
      }
    }
  ]
}